     2.100          NAVIGATION                              RINEX VERSION / TYPE
fic2rin                                 12/06/2016 00:04:08 PGM / RUN BY / DATE
                                                            END OF HEADER
 7 16 12  5  8  0  0.0  .404942780733D-03 -.341060513165D-11  .000000000000D+00
     .750000000000D+02  .353437500000D+02  .434268089009D-08 -.213208420918D+00
     .193342566490D-05  .100475711515D-01  .888668000698D-05  .515362366486D+04
     .115200000000D+06  .614672899246D-07 -.250849924545D+01  .154599547386D-06
     .964496108209D+00  .211437500000D+03 -.261282585558D+01 -.809105131048D-08
    -.206794328100D-09  .100000000000D+01  .192600000000D+04  .000000000000D+00
     .240000000000D+01  .000000000000D+00 -.111758708954D-07  .750000000000D+02
     .108006000000D+06  .400000000000D+01
 8 16 12  5  8  0  0.0 -.413134694099D-04 -.136424205266D-11  .000000000000D+00
     .450000000000D+02 -.355937500000D+02  .469233831187D-08 -.298048451815D+01
    -.173971056938D-05  .216541858390D-02  .322982668877D-05  .515355232239D+04
     .115200000000D+06  .000000000000D+00 -.444724922201D+00  .104308128357D-06
     .965382180134D+00  .318781250000D+03 -.984472020514D+00 -.828355932921D-08
     .450018745087D-10  .100000000000D+01  .192600000000D+04  .000000000000D+00
     .240000000000D+01  .000000000000D+00  .512227416039D-08  .450000000000D+02
     .108006000000D+06  .400000000000D+01
 9 16 12  5  8  0  0.0  .257606618106D-03  .738964445191D-11  .000000000000D+00
     .230000000000D+02  .100625000000D+02  .483591572101D-08  .277688117261D+01
     .601634383202D-06  .782554154284D-03  .636465847492D-05  .515372991180D+04
     .115200000000D+06 -.186264514923D-08  .269657373459D+01  .111758708954D-07
     .954314404648D+00  .253375000000D+03  .175108354647D+01 -.818569811004D-08
    -.142505935944D-09  .100000000000D+01  .192600000000D+04  .000000000000D+00
     .240000000000D+01  .000000000000D+00  .139698386192D-08  .230000000000D+02
     .108006000000D+06  .400000000000D+01
10 16 12  5  8  0  0.0 -.115829985589D-03 -.454747350886D-12  .000000000000D+00
     .230000000000D+02  .393750000000D+01  .448090093322D-08 -.160065443213D+01
     .212341547012D-06  .196949788369D-02  .945292413235D-05  .515367498970D+04
     .115200000000D+06 -.260770320892D-07  .165489583134D+01 -.484287738800D-07
     .959292066799D+00  .198031250000D+03 -.294965865155D+01 -.785997025645D-08
     .297155234851D-09  .100000000000D+01  .192600000000D+04  .000000000000D+00
     .240000000000D+01  .000000000000D+00  .232830643654D-08  .230000000000D+02
     .108006000000D+06  .400000000000D+01
11 16 12  5  8  0  0.0 -.673029106110D-03 -.795807864051D-12  .000000000000D+00
     .780000000000D+02 -.867812500000D+02  .614097008177D-08 -.144031517571D+00
    -.446103513241D-05  .167151603382D-01  .626593828201D-05  .515369000816D+04
     .115200000000D+06 -.234693288803D-06  .226374635355D+00  .186264514923D-08
     .899087883716D+00  .226718750000D+03  .160411213849D+01 -.918859702766D-08
    -.571452374714D-10  .100000000000D+01  .192600000000D+04  .000000000000D+00
     .485000000000D+01  .000000000000D+00 -.121071934700D-07  .780000000000D+02
     .108006000000D+06  .400000000000D+01
12 16 12  5  8  0  0.0  .389465596527D-03 -.113686837722D-12  .000000000000D+00
     .850000000000D+02  .738125000000D+02  .399945230753D-08 -.799602160217D+00
     .395812094212D-05  .613357883412D-02  .629760324955D-05  .515362228394D+04
     .115200000000D+06  .949949026108D-07 -.142783262385D+01  .102445483208D-06
     .989730950610D+00  .276281250000D+03  .779520749574D+00 -.797890378194D-08
     .243581574722D-09  .100000000000D+01  .192600000000D+04  .000000000000D+00
     .240000000000D+01  .000000000000D+00 -.125728547573D-07  .850000000000D+02
     .108006000000D+06  .400000000000D+01
13 16 12  5  8  0  0.0 -.584102235734D-04 -.193267624127D-11  .000000000000D+00
     .140000000000D+02  .975000000000D+01  .449947313540D-08  .824162952872D+00
     .476837158203D-06  .405311677605D-02  .676140189171D-05  .515368385315D+04
     .115200000000D+06 -.745058059692D-08  .282013538703D+01 -.558793544769D-07
     .970618426222D+00  .253781250000D+03  .188055827721D+01 -.806962184643D-08
    -.207508643568D-09  .100000000000D+01  .192600000000D+04  .000000000000D+00
     .240000000000D+01  .000000000000D+00 -.111758708954D-07  .140000000000D+02
     .108006000000D+06  .400000000000D+01
14 16 12  5  8  0  0.0 -.481093302369D-04 -.170530256582D-11  .000000000000D+00
     .750000000000D+02  .130625000000D+02  .459126267309D-08  .215608582334D+01
     .633299350739D-06  .864515453577D-02  .656954944134D-05  .515360049057D+04
     .115200000000D+06  .428408384323D-07  .278185846611D+01 -.191852450371D-06
     .963097339087D+00  .251968750000D+03 -.194798670087D+01 -.796426031484D-08
    -.100004165575D-09  .100000000000D+01  .192600000000D+04  .000000000000D+00
     .240000000000D+01  .000000000000D+00 -.931322574615D-08  .750000000000D+02
     .108006000000D+06  .400000000000D+01
16 16 12  5  8  0  0.0  .182087533176D-04  .147792889038D-11  .000000000000D+00
     .310000000000D+02  .613750000000D+02  .392409202561D-08 -.274222034819D+01
     .310130417347D-05  .883637124207D-02  .669620931149D-05  .515360928345D+04
     .115200000000D+06 -.987201929092D-07 -.140900218811D+01 -.171363353729D-06
     .990223465388D+00  .268718750000D+03  .381002890734D+00 -.775175146299D-08
     .243224416988D-09  .100000000000D+01  .192600000000D+04  .000000000000D+00
     .240000000000D+01  .000000000000D+00 -.102445483208D-07  .310000000000D+02
     .108006000000D+06  .400000000000D+01
17 16 12  5  8  0  0.0 -.197717919946D-03  .909494701773D-12  .000000000000D+00
     .111000000000D+03 -.535625000000D+02  .424517682865D-08  .249343921480D+01
    -.288151204586D-05  .115631211083D-01  .354275107384D-05  .515378205109D+04
     .115200000000D+06  .800937414169D-07 -.389527356807D+00 -.173225998878D-06
     .978584657385D+00  .317687500000D+03 -.190409677686D+01 -.792032991353D-08
    -.985755346381D-10  .100000000000D+01  .192600000000D+04  .000000000000D+00
     .340000000000D+01  .000000000000D+00 -.107102096081D-07  .111000000000D+03
     .108006000000D+06  .400000000000D+01
18 16 12  5  8  0  0.0  .581556465477D-03  .306954461848D-11  .000000000000D+00
     .820000000000D+02  .562500000000D+01  .517307262210D-08 -.218156880298D+01
     .286847352982D-06  .173190457281D-01  .907108187675D-05  .515372978973D+04
     .115200000000D+06  .294297933578D-06  .161899789024D+01 -.484287738800D-07
     .924819258069D+00  .183031250000D+03 -.184798221931D+01 -.797818946647D-08
     .362515100209D-09  .100000000000D+01  .192600000000D+04  .000000000000D+00
     .240000000000D+01  .000000000000D+00 -.111758708954D-07  .820000000000D+02
     .108006000000D+06  .400000000000D+01
19 16 12  5  8  0  0.0 -.518713146448D-03  .795807864051D-12  .000000000000D+00
     .920000000000D+02 -.521875000000D+02  .446804325479D-08 -.603385406978D+00
    -.251270830631D-05  .102660905104D-01  .417977571487D-05  .515363796425D+04
     .115200000000D+06  .372529029846D-08 -.341277651653D+00  .126659870148D-06
     .975780871019D+00  .307468750000D+03  .894451760272D+00 -.831427489435D-08
    -.550022910662D-10  .100000000000D+01  .192600000000D+04  .000000000000D+00
     .240000000000D+01  .000000000000D+00 -.149011611938D-07  .920000000000D+02
     .108006000000D+06  .400000000000D+01
20 16 12  5  8  0  0.0  .449270009995D-03  .181898940355D-11  .000000000000D+00
     .580000000000D+02  .125000000000D+01  .536593779856D-08  .167821432859D+01
    -.126659870148D-06  .476219528355D-02  .961124897003D-05  .515360701752D+04
     .115200000000D+06  .409781932831D-07  .156741917456D+01 -.596046447754D-07
     .926136750387D+00  .176687500000D+03  .150739416968D+01 -.835891961113D-08
     .255010622216D-09  .100000000000D+01  .192600000000D+04  .000000000000D+00
     .240000000000D+01  .000000000000D+00 -.838190317154D-08  .580000000000D+02
     .108006000000D+06  .400000000000D+01
21 16 12  5  8  0  0.0 -.529694836587D-03  .113686837722D-11  .000000000000D+00
     .460000000000D+02 -.825625000000D+02  .504378152232D-08 -.125078897298D+01
    -.399164855480D-05  .234887399711D-01  .875070691109D-05  .515378226852D+04
     .115200000000D+06 -.353902578354D-07  .577645875395D+00  .629574060440D-06
     .938161458625D+00  .197187500000D+03 -.173742191629D+01 -.843356557757D-08
    -.160720980388D-09  .100000000000D+01  .192600000000D+04  .000000000000D+00
     .240000000000D+01  .000000000000D+00 -.977888703346D-08  .460000000000D+02
     .108006000000D+06  .400000000000D+01
22 16 12  5  8  0  0.0  .171004328877D-03 -.109139364213D-10  .000000000000D+00
     .460000000000D+02  .465625000000D+01  .540058209878D-08  .204130735111D+01
     .223517417908D-07  .730256247334D-02  .861287117004D-05  .515365461731D+04
     .115200000000D+06  .614672899246D-07  .161923148607D+01 -.193715095520D-06
     .922791103553D+00  .191718750000D+03 -.184091150320D+01 -.830641742420D-08
     .236795577772D-09  .100000000000D+01  .192600000000D+04  .000000000000D+00
     .240000000000D+01  .000000000000D+00 -.176951289177D-07  .460000000000D+02
     .108006000000D+06  .400000000000D+01
23 16 12  5  8  0  0.0 -.198801979423D-03 -.113686837722D-11  .000000000000D+00
     .550000000000D+02  .109687500000D+02  .512807074759D-08  .133264405690D+01
     .691041350365D-06  .111354276305D-01  .646896660328D-05  .515357081032D+04
     .115200000000D+06 -.119209289551D-06  .270001542493D+01  .128522515297D-06
     .945212088860D+00  .249562500000D+03 -.252150771343D+01 -.843535136624D-08
    -.257153568621D-09  .100000000000D+01  .192600000000D+04  .000000000000D+00
     .240000000000D+01  .000000000000D+00 -.200234353542D-07  .550000000000D+02
     .108006000000D+06  .400000000000D+01
